{"fetched_at":"2026-03-30T06:02:59Z","count":15439,"tles":[{"name":"STARLINK-1453","line1":"1 45670U 20035P   26087.92892301  .00114372  00000+0  15713-2 0  9995","line2":"2 45670  53.0455 280.3673 0003333 126.2465 233.8854 15.56463937322361","category":"Starlink"}]}